[{"OBJECT_NAME":"UHETSAT","OBJECT_ID":"2023-185E","EPOCH":"2026-03-09T22:39:26.455680","MEAN_MOTION":15.29797662,"ECCENTRICITY":0.00118435,"INCLINATION":97.3584,"RA_OF_ASC_NODE":137.3576,"ARG_OF_PERICENTER":307.7346,"MEAN_ANOMALY":52.2821,"EPHEMERIS_TYPE":0,"CLASSIFICATION_TYPE":"U","NORAD_CAT_ID":58466,"ELEMENT_SET_NO":999,"REV_AT_EPOCH":12611,"BSTAR":0.00030513019,"MEAN_MOTION_DOT":8.749e-5,"MEAN_MOTION_DDOT":0},{"OBJECT_NAME":"STARLINK-34326","OBJECT_ID":"2025-117U","EPOCH":"2026-03-09T22:31:03.839232","MEAN_MOTION":15.30221515,"ECCENTRICITY":0.00021741,"INCLINATION":53.16,"RA_OF_ASC_NODE":38.4582,"ARG_OF_PERICENTER":95.067,"MEAN_ANOMALY":265.0579,"EPHEMERIS_TYPE":0,"CLASSIFICATION_TYPE":"U","NORAD_CAT_ID":64221,"ELEMENT_SET_NO":999,"REV_AT_EPOCH":4459,"BSTAR":0.0012771202,"MEAN_MOTION_DOT":0.00037684,"MEAN_MOTION_DDOT":0}]
